JAGI ? BHZ e P c 20090118 0648 05.510 GAU 0.0 0.0 357.1288 0.0
JAGI ? BHN e S ? 20090118 0648 16.783 GAU 0.0 0.0 -11076.607 0.0
BYJI ? BHZ e P c 20090118 0648 08.345 GAU 0.0 0.0 1210.3596 0.0
BYJI ? BHE e S ? 20090118 0648 23.573 GAU 0.0 0.0 8959.142 0.0
KHK ? BHZ e P c 20090118 0648 12.769 GAU 0.0 0.0 -940.2319 0.0
KHK ? BHE e S ? 20090118 0648 30.079 GAU 0.0 0.0 -2096.6387 0.0
GMJI ? BHZ e P c 20090118 0648 13.634 GAU 0.0 0.0 -1490.3934 0.0
GMJI ? BHE e S ? 20090118 0648 31.767 GAU 0.0 0.0 -6275.8247 0.0
KMMI ? BHZ e P c 20090118 0648 24.926 GAU 0.0 0.0 -102.09459 0.0
KMMI ? BHE e S ? 20090118 0648 50.562 GAU 0.0 0.0 -391.82498 0.0
KRK ? BHZ e P c 20090118 0648 27.089 GAU 0.0 0.0 -2756.077 0.0
KRK ? BHN e S ? 20090118 0648 54.447 GAU 0.0 0.0 -12422.997 0.0
PWJI ? BHZ e P c 20090118 0648 34.714 GAU 0.0 0.0 0.36925945 0.0
PWJI ? BHN e S ? 20090118 0649 08.995 GAU 0.0 0.0 -1020.77014 0.0
SWJI ? BHZ e P c 20090118 0648 36.816 GAU 0.0 0.0 -1766.6298 0.0
SWJI ? BHE e S ? 20090118 0649 13.187 GAU 0.0 0.0 -4046.875 0.0
PCJI ? BHZ e P c 20090118 0648 41.688 GAU 0.0 0.0 -285.12515 0.0
PCJI ? BHN e S ? 20090118 0649 20.023 GAU 0.0 0.0 464.11557 0.0
UGM ? BHZ e P c 20090118 0648 52.418 GAU 0.0 0.0 -65.2686 0.0
UGM ? BHN e S ? 20090118 0649 41.487 GAU 0.0 0.0 -547.47107 0.0
YOGI ? BHZ i P c 20090118 0649 01.400 GAU 0.1 0.0 -713.599 0.0
YOGI ? BHE e S ? 20090118 0649 49.714 GAU 0.0 0.0 220.83586 0.0

